{
    "links": {
        "self": "http://www.neowsapp.com/rest/v1/neo/3365985?api_key=iIulBulltgU6a56xZRHN4H3l9WmuAYTsLGpBGhQ2"
    },
    "id": "3365985",
    "neo_reference_id": "3365985",
    "name": "(2007 AU2)",
    "designation": "2007 AU2",
    "nasa_jpl_url": "http://ssd.jpl.nasa.gov/sbdb.cgi?sstr=3365985",
    "absolute_magnitude_h": 24.1,
    "estimated_diameter": {
        "kilometers": {
            "estimated_diameter_min": 0.040230458,
            "estimated_diameter_max": 0.0899580388
        },
        "meters": {
            "estimated_diameter_min": 40.2304579834,
            "estimated_diameter_max": 89.9580388169
        },
        "miles": {
            "estimated_diameter_min": 0.0249980399,
            "estimated_diameter_max": 0.0558973165
        },
        "feet": {
            "estimated_diameter_min": 131.9896957704,
            "estimated_diameter_max": 295.1379320721
        }
    },
    "is_potentially_hazardous_asteroid": false,
    "close_approach_data": [
        {
            "close_approach_date": "2004-12-28",
            "close_approach_date_full": "2004-Dec-28 01:48",
            "epoch_date_close_approach": 1104198480000,
            "relative_velocity": {
                "kilometers_per_second": "21.6633288751",
                "kilometers_per_hour": "77987.9839504756",
                "miles_per_hour": "48458.700360783"
            },
            "miss_distance": {
                "astronomical": "0.3103608282",
                "lunar": "120.7303621698",
                "kilometers": "46429318.830155934",
                "miles": "28849840.9361585292"
            },
            "orbiting_body": "Earth"
        },
        {
            "close_approach_date": "2007-01-14",
            "close_approach_date_full": "2007-Jan-14 17:06",
            "epoch_date_close_approach": 1168794360000,
            "relative_velocity": {
                "kilometers_per_second": "13.2029424613",
                "kilometers_per_hour": "47530.59286072",
                "miles_per_hour": "29533.6619917068"
            },
            "miss_distance": {
                "astronomical": "0.0268244578",
                "lunar": "10.4347140842",
                "kilometers": "4012881.750784886",
                "miles": "2493489.0953119868"
            },
            "orbiting_body": "Earth"
        }
    ],
    "orbital_data": {
        "orbit_id": "7",
        "orbit_determination_date": "2017-04-06 09:07:13",
        "first_observation_date": "2007-01-10",
        "last_observation_date": "2007-01-15",
        "data_arc_in_days": 5,
        "observations_used": 24,
        "orbit_uncertainty": "8",
        "minimum_orbit_intersection": ".0121862",
        "jupiter_tisserand_invariant": "4.194",
        "epoch_osculation": "2454112.5",
        "eccentricity": ".4891345614177736",
        "semi_major_axis": "1.61107083849146",
        "inclination": "6.493429857986886",
        "ascending_node_longitude": "110.1719072160435",
        "orbital_period": "746.91362518374",
        "perihelion_distance": ".8230404104929749",
        "perihelion_argument": "66.42916510763199",
        "aphelion_distance": "2.399101266489945",
        "perihelion_time": "2454158.484028584984",
        "mean_anomaly": "337.8364596220588",
        "mean_motion": ".4819834420766395",
        "equinox": "J2000",
        "orbit_class": {
            "orbit_class_type": "APO",
            "orbit_class_description": "Near-Earth asteroid orbits which cross the Earth’s orbit similar to that of 1862 Apollo",
            "orbit_class_range": "a (semi-major axis) > 1.0 AU; q (perihelion) < 1.017 AU"
        }
    },
    "is_sentry_object": false
}